NORAD_CAT_ID,OBJECT_NAME,OBJECT_TYPE,EPOCH,MEAN_MOTION,ECCENTRICITY,INCLINATION,RA_OF_ASC_NODE,ARG_OF_PERICENTER,MEAN_ANOMALY,BSTAR,MEAN_MOTION_DOT,MEAN_MOTION_DDOT,TLE_LINE0,TLE_LINE1,TLE_LINE2,SEMIMAJOR_AXIS,PERIOD,APOGEE,PERIGEE,DECAYED
54184.0,STARLINK-5162,PAYLOAD,2024-04-29 02:38:34,15.0720371,0.0001438,53.2167,174.8994,98.0191,262.0964,-0.00011137,-1.978e-05,0.0,0 STARLINK-5162,1 54184U 22141AD  24120.11012542 -.00001978  00000-0 -11137-3 0  9990,2 54184  53.2167 174.8994 0001438  98.0191 262.0964 15.07203710 83493,6922.886,95.541,545.747,543.756,0.0
54184.0,STARLINK-5162,PAYLOAD,2024-04-29 10:36:02,15.07176469,0.000121,53.216,173.4164,103.3674,256.7452,0.00036796,5.318e-05,0.0,0 STARLINK-5162,1 54184U 22141AD  24120.44169141  .00005318  00000-0  36796-3 0  9992,2 54184  53.2160 173.4164 0001210 103.3674 256.7452 15.07176469 83542,6922.97,95.543,545.672,543.997,0.0
54184.0,STARLINK-5162,PAYLOAD,2024-04-29 20:08:57,15.07205454,0.0001326,53.2167,171.6344,95.6386,264.4757,0.00011528,1.472e-05,0.0,0 STARLINK-5162,1 54184U 22141AD  24120.83955070  .00001472  00000-0  11528-3 0  9992,2 54184  53.2167 171.6344 0001326  95.6386 264.4757 15.07205454 83608,6922.881,95.541,545.664,543.828,0.0
54184.0,STARLINK-5162,PAYLOAD,2024-04-30 10:28:21,15.07196839,0.0001442,53.2177,168.9624,95.1203,264.9953,0.000138,1.817e-05,0.0,0 STARLINK-5162,1 54184U 22141AD  24121.43636459  .00001817  00000-0  13800-3 0  9994,2 54184  53.2177 168.9624 0001442  95.1203 264.9953 15.07196839 83699,6922.907,95.542,545.771,543.774,0.0
54184.0,STARLINK-5162,PAYLOAD,2024-04-30 20:01:17,15.07203705,0.0001465,53.218,167.1807,92.3753,267.7406,0.00012292,1.588e-05,0.0,0 STARLINK-5162,1 54184U 22141AD  24121.83423346  .00001588  00000-0  12292-3 0  9996,2 54184  53.2180 167.1807 0001465  92.3753 267.7406 15.07203705 83528,6922.886,95.541,545.766,543.737,0.0
54184.0,STARLINK-5162,PAYLOAD,2024-05-01 11:56:11,15.07206979,0.0001453,53.2177,164.211,90.9066,269.2092,4.2501e-05,3.64e-06,0.0,0 STARLINK-5162,1 54184U 22141AD  24122.49735220  .00000364  00000-0  42501-4 0  9994,2 54184  53.2177 164.2110 0001453  90.9066 269.2092 15.07206979 83857,6922.876,95.541,545.747,543.735,0.0
54184.0,STARLINK-5162,PAYLOAD,2024-05-01 19:53:37,15.07210156,0.0001437,53.2171,162.7261,87.8349,272.2807,1.7862e-05,-1.1e-07,0.0,0 STARLINK-5162,1 54184U 22141AD  24122.82890942 -.00000011  00000-0  17862-4 0  9996,2 54184  53.2171 162.7261 0001437  87.8349 272.2807 15.07210156 83672,6922.867,95.541,545.726,543.737,0.0
54184.0,STARLINK-5162,PAYLOAD,2024-05-02 08:37:32,15.07204395,0.0001407,53.2162,160.3497,90.6919,269.4234,-7.8826e-06,-4.03e-06,0.0,0 STARLINK-5162,1 54184U 22141AD  24123.35940829 -.00000403  00000-0 -78826-5 0  9999,2 54184  53.2162 160.3497 0001407  90.6919 269.4234 15.07204395 83758,6922.884,95.541,545.723,543.775,0.0
54184.0,STARLINK-5162,PAYLOAD,2024-05-02 19:45:57,15.07212445,0.0001458,53.2163,158.2707,91.23,268.8858,-1.382e-05,-4.94e-06,0.0,0 STARLINK-5162,1 54184U 22141AD  24123.82358517 -.00000494  00000-0 -13820-4 0  9990,2 54184  53.2163 158.2707 0001458  91.2300 268.8858 15.07212445 84050,6922.86,95.541,545.734,543.715,0.0
54184.0,STARLINK-5162,PAYLOAD,2024-05-03 11:40:50,15.0721374,0.0001477,53.2158,155.3006,91.6153,268.5008,7.7069e-05,8.9e-06,0.0,0 STARLINK-5162,1 54184U 22141AD  24124.48669787  .00000890  00000-0  77069-4 0  9990,2 54184  53.2158 155.3006 0001477  91.6153 268.5008 15.07213740 83923,6922.856,95.541,545.743,543.698,0.0
54184.0,STARLINK-5162,PAYLOAD,2024-05-03 19:38:17,15.07213587,0.0001473,53.2158,153.8159,91.3952,268.7208,6.9274e-05,7.71e-06,0.0,0 STARLINK-5162,1 54184U 22141AD  24124.81825575  .00000771  00000-0  69274-4 0  9993,2 54184  53.2158 153.8159 0001473  91.3952 268.7208 15.07213587 83973,6922.856,95.541,545.741,543.701,0.0
54184.0,STARLINK-5162,PAYLOAD,2024-05-04 05:11:14,15.07202565,0.0001839,53.2157,152.0336,104.5463,255.5733,2.2582e-05,6e-07,0.0,0 STARLINK-5162,1 54184U 22141AD  24125.21613640  .00000060  00000-0  22582-4 0  9998,2 54184  53.2157 152.0336 0001839 104.5463 255.5733 15.07202565 84264,6922.89,95.541,546.028,543.482,0.0
54184.0,STARLINK-5162,PAYLOAD,2024-05-04 11:33:12,15.07197962,0.0001445,53.2159,150.8468,93.734,266.3817,-5.9275e-05,-1.185e-05,0.0,0 STARLINK-5162,1 54184U 22141AD  24125.48139050 -.00001185  00000-0 -59275-4 0  9995,2 54184  53.2159 150.8468 0001445  93.7340 266.3817 15.07197962 84306,6922.904,95.542,545.769,543.769,0.0
54184.0,STARLINK-5162,PAYLOAD,2024-05-05 11:25:32,15.07205521,0.0001461,53.2161,146.3928,94.331,265.7848,-2.7408e-05,-7.01e-06,0.0,0 STARLINK-5162,1 54184U 22141AD  24126.47606539 -.00000701  00000-0 -27408-4 0  9992,2 54184  53.2161 146.3928 0001461  94.3310 265.7848 15.07205521 84456,6922.881,95.541,545.757,543.734,0.0
54184.0,STARLINK-5162,PAYLOAD,2024-05-06 08:06:53,15.07201231,0.0001365,53.2157,142.5331,94.2928,265.8219,0.00014485,1.922e-05,0.0,0 STARLINK-5162,1 54184U 22141AD  24127.33811882  .00001922  00000-0  14485-3 0  9991,2 54184  53.2157 142.5331 0001365  94.2928 265.8219 15.07201231 84350,6922.894,95.541,545.704,543.814,0.0
54184.0,STARLINK-5162,PAYLOAD,2024-05-06 17:39:49,15.07208056,0.0001372,53.216,140.7514,94.0052,266.1096,0.00015328,2.051e-05,0.0,0 STARLINK-5162,1 54184U 22141AD  24127.73598648  .00002051  00000-0  15328-3 0  9998,2 54184  53.2160 140.7514 0001372  94.0052 266.1096 15.07208056 84642,6922.873,95.541,545.688,543.788,0.0
54184.0,STARLINK-5162,PAYLOAD,2024-05-07 04:48:15,15.07201136,0.0001447,53.2169,138.6732,96.317,263.7987,2.5188e-05,1e-06,0.0,0 STARLINK-5162,1 54184U 22141AD  24128.20017906  .00000100  00000-0  25188-4 0  9993,2 54184  53.2169 138.6732 0001447  96.3170 263.7987 15.07201136 84710,6922.894,95.541,545.761,543.758,0.0
54184.0,STARLINK-5162,PAYLOAD,2024-05-07 07:59:14,15.07202792,0.000144,53.2166,138.0796,97.8559,262.2596,3.7323e-05,2.85e-06,0.0,0 STARLINK-5162,1 54184U 22141AD  24128.33280148  .00000285  00000-0  37323-4 0  9995,2 54184  53.2166 138.0796 0001440  97.8559 262.2596 15.07202792 84507,6922.889,95.541,545.751,543.757,0.0
54184.0,STARLINK-5162,PAYLOAD,2024-05-07 17:32:10,15.07204116,0.0001444,53.2168,136.2979,93.3659,266.7498,3.2914e-05,2.18e-06,0.0,0 STARLINK-5162,1 54184U 22141AD  24128.73067211  .00000218  00000-0  32914-4 0  9990,2 54184  53.2168 136.2979 0001444  93.3659 266.7498 15.07204116 84566,6922.885,95.541,545.75,543.75,0.0
54184.0,STARLINK-5162,PAYLOAD,2024-05-08 07:51:34,15.07201237,0.0001481,53.2166,133.6254,92.8622,267.2539,-9.6228e-06,-4.3e-06,0.0,0 STARLINK-5162,1 54184U 22141AD  24129.32748340 -.00000430  00000-0 -96228-5 0  9992,2 54184  53.2166 133.6254 0001481  92.8622 267.2539 15.07201237 84884,6922.894,95.541,545.784,543.734,0.0
54184.0,STARLINK-5162,PAYLOAD,2024-05-08 17:24:30,15.07207095,0.0001488,53.2166,131.8437,90.7197,269.3965,-7.5209e-06,-3.98e-06,0.0,0 STARLINK-5162,1 54184U 22141AD  24129.72535119 -.00000398  00000-0 -75209-5 0  9993,2 54184  53.2166 131.8437 0001488  90.7197 269.3965 15.07207095 84714,6922.876,95.541,545.771,543.711,0.0
54184.0,STARLINK-5162,PAYLOAD,2024-05-09 04:32:55,15.07206972,0.0001418,53.216,129.7646,90.2416,269.8738,9.8969e-05,1.223e-05,0.0,0 STARLINK-5162,1 54184U 22141AD  24130.18953076  .00001223  00000-0  98969-4 0  9994,2 54184  53.2160 129.7646 0001418  90.2416 269.8738 15.07206972 85018,6922.876,95.541,545.723,543.76,0.0
54184.0,STARLINK-5162,PAYLOAD,2024-05-09 09:19:23,15.07209735,0.0001428,53.2163,128.8739,89.985,270.1305,0.00011183,1.419e-05,0.0,0 STARLINK-5162,1 54184U 22141AD  24130.38846431  .00001419  00000-0  11183-3 0  9991,2 54184  53.2163 128.8739 0001428  89.9850 270.1305 15.07209735 84814,6922.868,95.541,545.722,543.744,0.0
54184.0,STARLINK-5162,PAYLOAD,2024-05-10 04:25:16,15.07202042,0.0001419,53.2166,125.3095,92.0556,268.0598,7.7461e-05,8.96e-06,0.0,0 STARLINK-5162,1 54184U 22141AD  24131.18421384  .00000896  00000-0  77461-4 0  9996,2 54184  53.2166 125.3095 0001419  92.0556 268.0598 15.07202042 85165,6922.892,95.541,545.739,543.774,0.0
54184.0,STARLINK-5162,PAYLOAD,2024-05-10 06:00:45,15.0720449,0.0001387,53.2167,125.0113,94.8311,265.2838,5.5493e-05,5.61e-06,0.0,0 STARLINK-5162,1 54184U 22141AD  24131.25052466  .00000561  00000-0  55493-4 0  9995,2 54184  53.2167 125.0113 0001387  94.8311 265.2838 15.07204490 84947,6922.884,95.541,545.709,543.789,0.0
54184.0,STARLINK-5162,PAYLOAD,2024-05-10 17:09:10,15.07205541,0.0001398,53.2169,122.9334,93.5258,266.5893,6.0037e-05,6.31e-06,0.0,0 STARLINK-5162,1 54184U 22141AD  24131.71470764  .00000631  00000-0  60037-4 0  9999,2 54184  53.2169 122.9334 0001398  93.5258 266.5893 15.07205541 85010,6922.881,95.541,545.714,543.778,0.0
54184.0,STARLINK-5162,PAYLOAD,2024-05-11 09:04:02,15.07230131,0.0001775,53.2163,119.963,105.5269,254.5918,0.00021943,3.06e-05,0.0,0 STARLINK-5162,1 54184U 22141AD  24132.37781145  .00003060  00000-0  21943-3 0  9991,2 54184  53.2163 119.9630 0001775 105.5269 254.5918 15.07230131 85348,6922.805,95.539,545.899,543.442,0.0
54184.0,STARLINK-5162,PAYLOAD,2024-05-12 05:45:26,15.07189944,0.0001569,53.2177,116.1049,100.0218,260.0951,-0.00016637,-2.814e-05,0.0,0 STARLINK-5162,1 54184U 22141AD  24133.23988570 -.00002814  00000-0 -16637-3 0  9990,2 54184  53.2177 116.1049 0001569 100.0218 260.0951 15.07189944 85479,6922.929,95.542,545.88,543.707,0.0
54184.0,STARLINK-5162,PAYLOAD,2024-05-12 23:15:49,15.07191698,0.0001531,53.2158,112.8379,108.4203,251.6955,-0.00018546,-3.104e-05,0.0,0 STARLINK-5162,1 54184U 22141AD  24133.96932076 -.00003104  00000-0 -18546-3 0  9994,2 54184  53.2158 112.8379 0001531 108.4203 251.6955 15.07191698 85358,6922.923,95.542,545.848,543.728,0.0
54184.0,STARLINK-5162,PAYLOAD,2024-05-13 05:37:46,15.07195993,0.0001561,53.2163,111.6531,108.8615,251.2545,-3.7542e-05,-8.55e-06,0.0,0 STARLINK-5162,1 54184U 22141AD  24134.23456695 -.00000855  00000-0 -37542-4 0  9991,2 54184  53.2163 111.6531 0001561 108.8615 251.2545 15.07195993 85628,6922.91,95.542,545.856,543.694,0.0
